SWISSCUBE               
1 35932U 09051B   26122.19071120  .00001171  00000+0  24128-3 0  9990
2 35932  98.4064  29.2752 0007000   7.5176 352.6128 14.62391027882432
BEESAT-1                
1 35933U 09051C   26122.17643853  .00000973  00000+0  20554-3 0  9995
2 35933  98.3993  28.9917 0005796  23.4704 336.6760 14.61643730882463
ITUPSAT1                
1 35935U 09051E   26122.19566826  .00000896  00000+0  19524-3 0  9992
2 35935  98.4079  28.2514 0008173  30.1574 330.0094 14.60369899882029
XIWANG-1 (HOPE-1)       
1 36122U 09072B   26122.18841869 -.00000302  00000+0 -67541-3 0  9992
2 36122 100.3995  76.7627 0007461 344.1156  15.9722 13.16436963786953
O/OREOS (USA 219)       
1 37224U 10062C   26122.18483252  .00002358  00000+0  22907-3 0  9993
2 37224  71.9706 184.5252 0013693 161.8610 198.3052 14.93557733109771
JUGNU                   
1 37839U 11058B   26122.01523882  .00000456  00000+0  98473-4 0  9996
2 37839  19.9602 228.9375 0018473 286.9965 232.1336 14.13762839752483
SRMSAT                  
1 37841U 11058D   26122.00684734  .00000423  00000+0  85750-4 0  9990
2 37841  19.9735 338.9910 0011766  56.2157  94.3817 14.11564910751286
STRAND-1                
1 39090U 13009E   26122.10521535  .00000278  00000+0  10784-3 0  9998
2 39090  98.3913 303.4762 0008896  17.0043 343.1440 14.37135474690448
ZACUBE-1 (TSHEPISOSAT)  
1 39417U 13066B   26122.14303487  .00005768  00000+0  44987-3 0  9993
2 39417  97.8128  84.2319 0043445  47.6207 312.8681 15.00814563673822
GOMX-1                  
1 39430U 13066Q   26122.15128822  .00002177  00000+0  33346-3 0  9995
2 39430  97.6509 325.5153 0127766 224.9667 134.1138 14.69283470663152
CUBEBUG-2 (LO-74)       
1 39440U 13066AA  26121.83674549  .00003148  00000+0  29572-3 0  9997
2 39440  97.8881  70.6420 0057831 179.6191 180.5082 14.93428707670079
FUNCUBE-1 (AO-73)       
1 39444U 13066AE  26122.17507811  .00010851  00000+0  68191-3 0  9995
2 39444  97.8256  92.6904 0036766   3.8384 356.3119 15.08867210672727
UWE-3                   
1 39446U 13066AG  26122.15650178  .00005573  00000+0  48114-3 0  9998
2 39446  97.8677  77.9452 0051193 112.3633 248.3024 14.96643380670699
UNISAT-6                
1 40012U 14033C   26121.93860434  .00003141  00000+0  34246-3 0  9997
2 40012  97.7820 275.4885 0044463 219.5108 140.2864 14.87971418639281
DUCHIFAT-1              
1 40021U 14033M   26122.10350920  .00071269  00000+0  98640-3 0  9995
2 40021  98.0523 175.1039 0004936 215.6869 144.4054 15.56863201648569
QB50P1                  
1 40025U 14033R   26122.00436191  .00009404  00000+0  47171-3 0  9998
2 40025  98.0980 129.9369 0009592  35.0252 325.1609 15.17534408646020
LILACSAT-2              
1 40908U 15049K   26122.19706288  .00019110  00000+0  34271-3 0  9995
2 40908  97.4709 157.3298 0008549  69.6338 290.5831 15.49933261588625
FOX-1A (AO-85)          
1 40967U 15058D   26122.13382911  .00003965  00000+0  35929-3 0  9999
2 40967  64.7764  62.0704 0128639  74.6345 286.8938 14.90688129106705
CAS-2T & KS-1Q          
1 41847U 16066G   26122.17965316  .00000730  00000+0  11292-3 0  9991
2 41847  98.3829 198.4353 0340903 269.1617  87.0508 14.44575918498152
RADFXSAT (FOX-1B)       
1 43017U 17073E   26122.08989771  .00009893  00000+0  43538-3 0  9999
2 43017  97.4770 350.2666 0154293 127.3421 234.1982 15.11876467458421
DIWATA-2B               
1 43678U 18084H   26122.15173490  .00002442  00000+0  20020-3 0  9990
2 43678  98.1067 316.3970 0012787 329.3566  30.6908 15.00222025409311
ES'HAIL 2               
1 43700U 18090A   26120.49191795  .00000147  00000+0  00000+0 0  9998
2 43700   0.0137 266.9736 0001700 165.7205 348.6817  1.00277015 27199
FOX-1CLIFF (AO-95)      
1 43770U 18099N   26122.18230927  .00014603  00000+0  57432-3 0  9990
2 43770  97.4417 182.6270 0010028 143.5206 216.6717 15.25713742406202
ITASAT                  
1 43786U 18099AE  26122.09915279  .00008053  00000+0  39307-3 0  9990
2 43786  97.4064 174.5423 0013754 148.3517 211.8547 15.18457236405914
JY1SAT (JO-97)          
1 43803U 18099AX  26122.13968295  .00017768  00000+0  57302-3 0  9999
2 43803  97.4160 184.8599 0007154  82.4042 277.8012 15.32194856406571
UWE-4                   
1 43880U 18111E   26121.76651345  .00036856  00000+0  82481-3 0  9997
2 43880  97.5865  48.1262 0010382 122.7935 237.4314 15.43326843403618
TIANYAN 01              
1 44881U 19093C   26122.20357196  .00000500  00000+0  62654-4 0  9994
2 44881  97.7547 195.5552 0012315 235.4549 124.5505 14.86441576344584
RS-44 & BREEZE-KM R/B   
1 44909U 19096E   26122.11267623  .00000025  00000+0  64343-4 0  9992
2 44909  82.5256  10.3239 0216418 252.0532 105.6870 12.79748012296459
SALSAT                  
1 46495U 20068K   26121.95553892  .00008889  00000+0  31684-3 0  9999
2 46495  97.8856 122.2320 0011687 103.2556 256.9987 15.29110637308293
XW-3 (CAS-9)            
1 50466U 21131B   26122.23719909  .00000538  00000+0  17997-3 0  9993
2 50466  98.4960 214.8821 0003205 223.2881 136.8056 14.41312522228490
GREENCUBE (IO-117)      
1 53109U 22080E   26121.96028639 -.00000003  00000+0  00000+0 0  9997
2 53109  70.1452 314.3297 0008840 300.2950  59.6835  6.42583347 89091
UMKA 1 (RS40S)          
1 57172U 23091G   26122.15982206  .00006833  00000+0  31717-3 0  9994
2 57172  97.5083 181.0443 0011194 280.8214  79.1760 15.20298132157015
CUBESX-HSE 3 (RS42S)    
1 57178U 23091N   26122.14929714  .00014242  00000+0  49107-3 0  9999
2 57178  97.5120 187.1907 0009565 251.0485 108.9719 15.30066578157387
MONITOR-3 (RS58S)       
1 57180U 23091Q   26122.14142749  .00010824  00000+0  41145-3 0  9993
2 57180  97.5113 185.2762 0010338 259.0989 100.9086 15.26924854157268
MONITOR-4 (RS57S)       
1 57182U 23091S   26122.18888855  .00013008  00000+0  49226-3 0  9999
2 57182  97.5106 185.2920 0010308 259.4339 100.5739 15.27025006157272
MONITOR-2 (RS39S)       
1 57184U 23091U   26122.19079277  .00005791  00000+0  28388-3 0  9998
2 57184  97.5105 180.7775 0009623 272.4717  87.5416 15.18485770156974
SVYATOBOR 1 (RS60S)     
1 57187U 23091X   26122.16437792  .00010393  00000+0  40853-3 0  9993
2 57187  97.5120 185.7483 0008074 249.3325 110.7048 15.25837277157299
VIZARD-METEO (RS38S)    
1 57189U 23091Z   26122.13214328  .00017733  00000+0  53078-3 0  9998
2 57189  97.5115 190.7427 0006627 223.6625 136.4094 15.34578724157621
POLYTECH-UNIVERSE 3 (R*)
1 57191U 23091AB  26122.15811344  .00006067  00000+0  29520-3 0  9997
2 57191  97.5082 180.2502 0013976 291.4318  68.5425 15.18683908156964
UTMN 2 (RS27S)          
1 57203U 23091AP  26122.12720921  .00014689  00000+0  49335-3 0  9993
2 57203  97.5114 188.7451 0007092 233.9576 126.1008 15.30930709157494
KUZGTU 1 (RS47S)        
1 57217U 23091AV  26122.16677888  .00014132  00000+0  50623-3 0  9990
2 57217  97.5094 186.2097 0009651 255.2019 104.8151 15.28820134157340
SONATE-2                
1 59112U 24043Q   26121.92940432  .00038844  00000+0  56884-3 0  9996
2 59112  97.5483 269.6261 0006475  17.5345 342.6131 15.55462594120699
MESAT1                  
1 60209U 24125G   26122.13644331  .00056301  00000+0  72951-3 0  9990
2 60209  97.2364 338.7187 0011125  36.6295 323.5720 15.58632826102380
OOV-CUBE (TUBSAT-30)    
1 60240U 24128F   26122.13987007  .00002925  00000+0  22892-3 0  9990
2 60240  61.9969  26.1090 0049969 123.6472 236.9400 15.02542307 99195
COLIBRI-S (RS67S)       
1 61746U 24199M   26122.12833527  .00023505  00000+0  48474-3 0  9997
2 61746  97.3061 355.6152 0010748  90.0787 270.1694 15.45826896130298
HORS 3 (RS81S)          
1 61753U 24199U   26122.15853459  .00037347  00000+0  62104-3 0  9999
2 61753  97.3044 357.1783 0009196  94.1463 266.0841 15.51925832130414
HORS 4 (RS82S)          
1 61754U 24199V   26122.17827534  .00050114  00000+0  72660-3 0  9992
2 61754  97.2996 358.1385 0008296  90.5196 269.7010 15.55663322130484
HORIZON (RS59S)         
1 61757U 24199Y   26122.11429848  .00571717  13901-3  13842-2 0  9996
2 61757  97.2876   4.1055 0004553 134.1723 225.9929 15.96337674130867
ARCTICSAT 1 (RS74S)     
1 61762U 24199AD  26122.15226122  .00244182  00000+0  12632-2 0  9997
2 61762  97.2948   3.0071 0005442  92.9799 267.2092 15.80398457130792
SIT-2086                
1 61764U 24199AF  26122.14608154  .00026229  00000+0  46399-3 0  9995
2 61764  97.3018 357.7938 0008656  80.6697 279.5533 15.50254870127299
HYPERVIEW 1G (RS66S)    
1 61772U 24199AP  26122.18499176  .00100716  00000+0  96967-3 0  9990
2 61772  97.2965 359.9341 0008923  91.3478 268.8804 15.66172902127455
ALTAIR (RS65S)          
1 61779U 24199AW  26122.13570344  .00014094  00000+0  40072-3 0  9998
2 61779  97.3089 351.8063 0014794 109.7099 250.5743 15.36152256130044
ASRTU-1 (AO-123)        
1 61781U 24199AY  26122.15135250  .00009326  00000+0  27590-3 0  9998
2 61781  97.3062 351.2456 0015793 111.8699 248.4226 15.34997953126864
TUSUR GO (RS78S)        
1 61782U 24199AZ  26122.15574590  .01279029  10061-2  16629-2 0  9994
2 61782  97.2841   3.3624 0005031 174.6248 185.5089 16.07285597127686
SAMSAT-IONOSPHERE (RS7*)
1 61784U 24199BB  26122.13020725  .00044562  00000+0  69089-3 0  9999
2 61784  97.3018 357.0572 0011486  94.1358 266.1209 15.53811491130407
RTU MIREA 1 (RS51S)     
1 61785U 24199BC  26122.11481160  .00053702  00000+0  75538-3 0  9994
2 61785  97.3010 357.6680 0011310  91.9119 268.3432 15.56436178127295
TEVEL2-4                
1 63213U 25052D   26122.18729470  .00021764  00000+0  68360-3 0  9995
2 63213  97.3956  18.5491 0000283 254.8760 105.2451 15.33020813 63068
TEVEL2-5                
1 63214U 25052E   26121.68074363  .00022075  00000+0  69709-3 0  9998
2 63214  97.3955  18.0031 0000337 285.9180  74.2025 15.32846989 62985
TEVEL2-6                
1 63215U 25052F   26122.14891539  .00021919  00000+0  69255-3 0  9995
2 63215  97.3957  18.4562 0000426 276.3316  83.7878 15.32830192 63054
